2022-019D               
1 51827U 22019D   24020.78194685  .00010261  00000+0  50308-3 0  9991
2 51827  97.4529  94.6983 0014890  42.3224 317.9156 15.18219147104702
2022-019G               
1 51830U 22019G   24020.78777954  .00039632  00000+0  12664-2 0  9996
2 51830  97.4478  99.0700 0011912  34.0117 326.1886 15.32277322105018
JILIN-1 GAOFEN 03D14    
1 51831U 22019H   24020.77538798  .00014642  00000+0  64938-3 0  9993
2 51831  97.4521  96.1918 0017102  37.9149 322.3287 15.21562003104801
2022-019J               
1 51832U 22019J   24020.78865796  .00003354  00000+0  19076-3 0  9997
2 51832  97.4522  93.1202 0011058  55.4381 304.7893 15.13496570104604
JILIN-1 GAOFEN 03D16    
1 51834U 22019L   24020.76776910  .00015425  00000+0  68516-3 0  9991
2 51834  97.4526  96.2344 0014767  46.8943 313.3526 15.21531002104809
JILIN-1 GAOFEN 03D11    
1 51835U 22019M   24020.76066146  .00015725  00000+0  69715-3 0  9990
2 51835  97.4527  96.2449 0015952  39.8782 320.3623 15.21576884104800
JILIN-1 GAOFEN 03D17    
1 51838U 22019Q   24020.76897190  .00015640  00000+0  68699-3 0  9990
2 51838  97.4520  96.4691 0013065  44.6860 315.5427 15.21932369104825
JILIN-1 GAOFEN 03D15    
1 51839U 22019R   24020.81170894  .00015926  00000+0  70770-3 0  9992
2 51839  97.4508  96.1633 0010971  36.7090 323.4896 15.21556684104814
JILIN-1 GAOFEN 03D10    
1 51840U 22019S   24020.79774596  .00015816  00000+0  70225-3 0  9993
2 51840  97.4522  96.2926 0013373  36.2335 323.9804 15.21558193104815
JILIN-1 GAOFEN 03D12    
1 51841U 22019T   24020.79057082  .00014904  00000+0  66180-3 0  9990
2 51841  97.4511  96.2149 0013565  36.3526 323.8629 15.21565963104814
JILIN-1 GAOFEN 03D18    
1 51844U 22019W   24020.78205314  .00015230  00000+0  67485-3 0  9997
2 51844  97.4501  96.0107 0019225  41.1728 319.0954 15.21547660104705
2022-023F               
1 51951U 22023F   24020.78570363  .00063554  00000+0  28484-2 0  9997
2 51951  63.4831  16.7692 0077467 345.8339  14.0600 15.18137302104349
NOOR-2                  
1 51954U 22024A   24020.85083697  .00075017  00000+0  11242-2 0  9999
2 51954  58.2733 236.7074 0013919 148.5076 211.6835 15.54302639104691
ORESAT0                 
1 52017U 22026K   24020.51823317  .00039151  00000+0  10953-2 0  9993
2 52017  97.5069  30.1847 0018662  41.0913 319.1733 15.36379999102772
CZ-4C R/B               
1 52085U 22027B   24020.61272638 -.00000012  00000+0  93652-4 0  9998
2 52085  63.3962 236.7477 0155442  28.6616 332.2854 13.65372251 92077
MERIDIAN 10             
1 52145U 22030A   24020.63509187  .00000182  00000+0  00000+0 0  9990
2 52145  62.6486 235.0605 6911746 273.5822  16.4228  2.00595683 13392
OMNI-L1                 
1 52157U 22033A   24020.23316316  .00004636  00000+0  61479-3 0  9991
2 52157  97.9062 104.8826 0011959 279.3057  80.6802 14.80276826 97400
ENMAP                   
1 52159U 22033C   24020.58049329  .00001111  00000+0  17258-3 0  9999
2 52159  97.9783 104.4393 0001774   2.5213 357.6005 14.74997762 97146
ALFACRUX                
1 52160U 22033D   24020.58390000  .00136604  00000+0  15430-2 0  9991
2 52160  97.3341 110.2809 0003156  93.5797 266.5822 15.62022260100917
ARCSAT-1                
1 52161U 22033E   24020.44600217  .00007775  00000+0  27060-3 0  9990
2 52161  97.3387 101.9944 0009171 124.9881 235.2222 15.29927982100354
ION SCV-005             
1 52163U 22033G   24020.26823566  .00098725  00000+0  68400-3 0  9994
2 52163  97.3410 131.4423 0021086 320.1257  39.8457 15.73877915102246
MP42                    
1 52169U 22033N   24020.21015990  .00036816  00000+0  87083-3 0  9990
2 52169  97.3369 105.8575 0008331 100.9520 259.2664 15.41684754100599
BRO-7                   
1 52174U 22033T   24020.77578474  .00015702  00000+0  46654-3 0  9998
2 52174  97.3396 104.8121 0011565 100.5547 259.7000 15.34789235100578
BDSAT                   
1 52175U 22033U   24020.76915837  .00207653  00000+0  15886-2 0  9996
2 52175  97.3312 113.2080 0003604  43.8157 316.3391 15.71517521101129
SUCHAI-3                
1 52191U 22033AL  24020.20714693  .00074682  00000+0  12601-2 0  9996
2 52191  97.3448 108.1934 0005742  74.5349 285.6537 15.51378631100693
SUCHAI-2                
1 52192U 22033AM  24020.22311254  .00037079  00000+0  85676-3 0  9997
2 52192  97.3244 105.3555 0007028 107.9821 252.2193 15.42398648100622
GLOBAL-18               
1 52196U 22034B   24020.43001784  .00024100  00000+0  62311-3 0  9991
2 52196  52.9942  92.9493 0006506 358.0567   2.0409 15.38977538101602
GLOBAL-20               
1 52197U 22034C   24020.59432507  .00029667  00000+0  67846-3 0  9991
2 52197  52.9947  90.3809 0012370  14.7741 345.3622 15.42527502101659
GAOFEN-3 03             
1 52200U 22035A   24020.76497119  .00000188  00000+0  70402-4 0  9996
2 52200  98.4140  30.7533 0000729  69.4933 290.6335 14.42223483 94240
DAQI 1                  
1 52257U 22039A   24020.80856835  .00000904  00000+0  20757-3 0  9994
2 52257  98.1978 320.5587 0004290  69.4012 290.7647 14.57782875 93979
