OBJECT_NAME,OBJECT_ID,EPOCH,MEAN_MOTION,ECCENTRICITY,INCLINATION,RA_OF_ASC_NODE,ARG_OF_PERICENTER,MEAN_ANOMALY,EPHEMERIS_TYPE,CLASSIFICATION_TYPE,NORAD_CAT_ID,ELEMENT_SET_NO,REV_AT_EPOCH,BSTAR,MEAN_MOTION_DOT,MEAN_MOTION_DDOT
2022-019D,2022-019D,2024-01-20T18:46:00.207840,15.18219147,.001489,97.4529,94.6983,42.3224,317.9156,0,U,51827,999,10470,.50308E-3,.10261E-3,0
2022-019G,2022-019G,2024-01-20T18:54:24.152256,15.32277322,.0011912,97.4478,99.0700,34.0117,326.1886,0,U,51830,999,10501,.12664E-2,.39632E-3,0
JILIN-1 GAOFEN 03D14,2022-019H,2024-01-20T18:36:33.521472,15.21562003,.0017102,97.4521,96.1918,37.9149,322.3287,0,U,51831,999,10480,.64938E-3,.14642E-3,0
2022-019J,2022-019J,2024-01-20T18:55:40.047744,15.13496570,.0011058,97.4522,93.1202,55.4381,304.7893,0,U,51832,999,10460,.19076E-3,.3354E-4,0
JILIN-1 GAOFEN 03D16,2022-019L,2024-01-20T18:25:35.250240,15.21531002,.0014767,97.4526,96.2344,46.8943,313.3526,0,U,51834,999,10480,.68516E-3,.15425E-3,0
JILIN-1 GAOFEN 03D11,2022-019M,2024-01-20T18:15:21.150144,15.21576884,.0015952,97.4527,96.2449,39.8782,320.3623,0,U,51835,999,10480,.69715E-3,.15725E-3,0
JILIN-1 GAOFEN 03D17,2022-019Q,2024-01-20T18:27:19.172160,15.21932369,.0013065,97.4520,96.4691,44.6860,315.5427,0,U,51838,999,10482,.68699E-3,.1564E-3,0
JILIN-1 GAOFEN 03D15,2022-019R,2024-01-20T19:28:51.652416,15.21556684,.0010971,97.4508,96.1633,36.7090,323.4896,0,U,51839,999,10481,.7077E-3,.15926E-3,0
JILIN-1 GAOFEN 03D10,2022-019S,2024-01-20T19:08:45.250944,15.21558193,.0013373,97.4522,96.2926,36.2335,323.9804,0,U,51840,999,10481,.70225E-3,.15816E-3,0
JILIN-1 GAOFEN 03D12,2022-019T,2024-01-20T18:58:25.318848,15.21565963,.0013565,97.4511,96.2149,36.3526,323.8629,0,U,51841,999,10481,.6618E-3,.14904E-3,0
JILIN-1 GAOFEN 03D18,2022-019W,2024-01-20T18:46:09.391296,15.21547660,.0019225,97.4501,96.0107,41.1728,319.0954,0,U,51844,999,10470,.67485E-3,.1523E-3,0
2022-023F,2022-023F,2024-01-20T18:51:24.793632,15.18137302,.0077467,63.4831,16.7692,345.8339,14.0600,0,U,51951,999,10434,.28484E-2,.63554E-3,0
NOOR-2,2022-024A,2024-01-20T20:25:12.314208,15.54302639,.0013919,58.2733,236.7074,148.5076,211.6835,0,U,51954,999,10469,.11242E-2,.75017E-3,0
ORESAT0,2022-026K,2024-01-20T12:26:15.345888,15.36379999,.0018662,97.5069,30.1847,41.0913,319.1733,0,U,52017,999,10277,.10953E-2,.39151E-3,0
CZ-4C R/B,2022-027B,2024-01-20T14:42:19.559232,13.65372251,.0155442,63.3962,236.7477,28.6616,332.2854,0,U,52085,999,9207,.93652E-4,-.12E-6,0
MERIDIAN 10,2022-030A,2024-01-20T15:14:31.937568,2.00595683,.6911746,62.6486,235.0605,273.5822,16.4228,0,U,52145,999,1339,0,.182E-5,0
OMNI-L1,2022-033A,2024-01-20T05:35:45.297024,14.80276826,.0011959,97.9062,104.8826,279.3057,80.6802,0,U,52157,999,9740,.61479E-3,.4636E-4,0
ENMAP,2022-033C,2024-01-20T13:55:54.620256,14.74997762,.0001774,97.9783,104.4393,2.5213,357.6005,0,U,52159,999,9714,.17258E-3,.1111E-4,0
ALFACRUX,2022-033D,2024-01-20T14:00:48.960000,15.62022260,.0003156,97.3341,110.2809,93.5797,266.5822,0,U,52160,999,10091,.1543E-2,.136604E-2,0
ARCSAT-1,2022-033E,2024-01-20T10:42:14.587488,15.29927982,.0009171,97.3387,101.9944,124.9881,235.2222,0,U,52161,999,10035,.2706E-3,.7775E-4,0
ION SCV-005,2022-033G,2024-01-20T06:26:15.561024,15.73877915,.0021086,97.3410,131.4423,320.1257,39.8457,0,U,52163,999,10224,.684E-3,.98725E-3,0
MP42,2022-033N,2024-01-20T05:02:37.815360,15.41684754,.0008331,97.3369,105.8575,100.9520,259.2664,0,U,52169,999,10059,.87083E-3,.36816E-3,0
BRO-7,2022-033T,2024-01-20T18:37:07.801536,15.34789235,.0011565,97.3396,104.8121,100.5547,259.7000,0,U,52174,999,10057,.46654E-3,.15702E-3,0
BDSAT,2022-033U,2024-01-20T18:27:35.283168,15.71517521,.0003604,97.3312,113.2080,43.8157,316.3391,0,U,52175,999,10112,.15886E-2,.207653E-2,0
SUCHAI-3,2022-033AL,2024-01-20T04:58:17.494752,15.51378631,.0005742,97.3448,108.1934,74.5349,285.6537,0,U,52191,999,10069,.12601E-2,.74682E-3,0
SUCHAI-2,2022-033AM,2024-01-20T05:21:16.923456,15.42398648,.0007028,97.3244,105.3555,107.9821,252.2193,0,U,52192,999,10062,.85676E-3,.37079E-3,0
GLOBAL-18,2022-034B,2024-01-20T10:19:13.541376,15.38977538,.0006506,52.9942,92.9493,358.0567,2.0409,0,U,52196,999,10160,.62311E-3,.241E-3,0
GLOBAL-20,2022-034C,2024-01-20T14:15:49.686048,15.42527502,.001237,52.9947,90.3809,14.7741,345.3622,0,U,52197,999,10165,.67846E-3,.29667E-3,0
GAOFEN-3 03,2022-035A,2024-01-20T18:21:33.510816,14.42223483,.0000729,98.4140,30.7533,69.4933,290.6335,0,U,52200,999,9424,.70402E-4,.188E-5,0
DAQI 1,2022-039A,2024-01-20T19:24:20.305440,14.57782875,.000429,98.1978,320.5587,69.4012,290.7647,0,U,52257,999,9397,.20757E-3,.904E-5,0
